{
  "type": "FeatureCollection",
  "features": [
    {
      "type": "Feature",
      "properties": {
        "norad_id": 34765,
        "name": "IRIDIUM 33 DEB",
        "group": "iridium-33-debris",
        "lat": 48.150402314357784,
        "lon": -149.6876991781374,
        "alt_km": 753.4271618099665,
        "timestamp": "2025-12-08T21:31:05.051911+00:00",
        "meta_object_name": "IRIDIUM 33 DEB",
        "meta_object_id": "1997-051LJ",
        "meta_epoch": "2025-12-08T02:42:04.212864",
        "meta_mean_motion": 14.40446834,
        "meta_eccentricity": 0.00149899,
        "meta_inclination": 86.3396,
        "meta_ra_of_asc_node": 34.7471,
        "meta_arg_of_pericenter": 227.7302,
        "meta_mean_anomaly": 160.9531,
        "meta_ephemeris_type": 0,
        "meta_classification_type": "U",
        "meta_norad_cat_id": 34765,
        "meta_element_set_no": 999,
        "meta_rev_at_epoch": 87547,
        "meta_bstar": 0.00060973087,
        "meta_mean_motion_dot": 1.958e-05,
        "meta_mean_motion_ddot": 0,
        "tle_line1": "1 34765U 97051LJ  25342.11254876  .00001958  00000+0  60973-3 0  9997",
        "tle_line2": "2 34765  86.3396  34.7471 0014989 227.7302 160.9531 14.40446834875476"
      },
      "geometry": {
        "type": "Point",
        "coordinates": [
          -149.6876991781374,
          48.150402314357784
        ]
      }
    },
    {
      "type": "Feature",
      "properties": {
        "norad_id": 34833,
        "name": "IRIDIUM 33 DEB",
        "group": "iridium-33-debris",
        "lat": 72.3683991204392,
        "lon": 64.09700112022955,
        "alt_km": 698.8755751372073,
        "timestamp": "2025-12-08T21:31:05.051921+00:00",
        "meta_object_name": "IRIDIUM 33 DEB",
        "meta_object_id": "1997-051MH",
        "meta_epoch": "2025-12-08T11:20:22.290144",
        "meta_mean_motion": 14.52337635,
        "meta_eccentricity": 0.00217459,
        "meta_inclination": 86.3933,
        "meta_ra_of_asc_node": 52.8332,
        "meta_arg_of_pericenter": 111.6226,
        "meta_mean_anomaly": 265.3104,
        "meta_ephemeris_type": 0,
        "meta_classification_type": "U",
        "meta_norad_cat_id": 34833,
        "meta_element_set_no": 999,
        "meta_rev_at_epoch": 87653,
        "meta_bstar": 0.0012181762,
        "meta_mean_motion_dot": 4.99e-05,
        "meta_mean_motion_ddot": 0,
        "tle_line1": "1 34833U 97051MH  25342.47248021  .00004990  00000+0  12182-2 0  9994",
        "tle_line2": "2 34833  86.3933  52.8332 0021745 111.6226 265.3104 14.52337635876535"
      },
      "geometry": {
        "type": "Point",
        "coordinates": [
          64.09700112022955,
          72.3683991204392
        ]
      }
    },
    {
      "type": "Feature",
      "properties": {
        "norad_id": 34870,
        "name": "IRIDIUM 33 DEB",
        "group": "iridium-33-debris",
        "lat": 72.72403274682046,
        "lon": -32.179928015195834,
        "alt_km": 640.25961398446,
        "timestamp": "2025-12-08T21:31:05.051932+00:00",
        "meta_object_name": "IRIDIUM 33 DEB",
        "meta_object_id": "1997-051MQ",
        "meta_epoch": "2025-12-07T16:41:29.147136",
        "meta_mean_motion": 14.76272854,
        "meta_eccentricity": 0.00154972,
        "meta_inclination": 86.3098,
        "meta_ra_of_asc_node": 316.3932,
        "meta_arg_of_pericenter": 201.8058,
        "meta_mean_anomaly": 332.1989,
        "meta_ephemeris_type": 0,
        "meta_classification_type": "U",
        "meta_norad_cat_id": 34870,
        "meta_element_set_no": 999,
        "meta_rev_at_epoch": 88836,
        "meta_bstar": 0.0021061979,
        "meta_mean_motion_dot": 0.00014658,
        "meta_mean_motion_ddot": 0,
        "tle_line1": "1 34870U 97051MQ  25341.69547624  .00014658  00000+0  21062-2 0  9998",
        "tle_line2": "2 34870  86.3098 316.3932 0015497 201.8058 332.1989 14.76272854888369"
      },
      "geometry": {
        "type": "Point",
        "coordinates": [
          -32.179928015195834,
          72.72403274682046
        ]
      }
    },
    {
      "type": "Feature",
      "properties": {
        "norad_id": 34896,
        "name": "IRIDIUM 33 DEB",
        "group": "iridium-33-debris",
        "lat": 53.98426819957093,
        "lon": -26.524917675691068,
        "alt_km": 684.9970959341963,
        "timestamp": "2025-12-08T21:31:05.051942+00:00",
        "meta_object_name": "IRIDIUM 33 DEB",
        "meta_object_id": "1997-051MY",
        "meta_epoch": "2025-12-08T06:47:45.155328",
        "meta_mean_motion": 14.66206819,
        "meta_eccentricity": 0.00239488,
        "meta_inclination": 86.3293,
        "meta_ra_of_asc_node": 328.6838,
        "meta_arg_of_pericenter": 231.0822,
        "meta_mean_anomaly": 187.3834,
        "meta_ephemeris_type": 0,
        "meta_classification_type": "U",
        "meta_norad_cat_id": 34896,
        "meta_element_set_no": 999,
        "meta_rev_at_epoch": 87554,
        "meta_bstar": 0.001338628,
        "meta_mean_motion_dot": 7.421e-05,
        "meta_mean_motion_ddot": 0,
        "tle_line1": "1 34896U 97051MY  25342.28316152  .00007421  00000+0  13386-2 0  9992",
        "tle_line2": "2 34896  86.3293 328.6838 0023948 231.0822 187.3834 14.66206819875541"
      },
      "geometry": {
        "type": "Point",
        "coordinates": [
          -26.524917675691068,
          53.98426819957093
        ]
      }
    },
    {
      "type": "Feature",
      "properties": {
        "norad_id": 34926,
        "name": "IRIDIUM 33 DEB",
        "group": "iridium-33-debris",
        "lat": -53.718776112767024,
        "lon": 4.766651928829744,
        "alt_km": 665.3253099094645,
        "timestamp": "2025-12-08T21:31:05.051952+00:00",
        "meta_object_name": "IRIDIUM 33 DEB",
        "meta_object_id": "1997-051NF",
        "meta_epoch": "2025-12-08T08:36:48.617856",
        "meta_mean_motion": 14.5409802,
        "meta_eccentricity": 0.007612,
        "meta_inclination": 86.1323,
        "meta_ra_of_asc_node": 10.3036,
        "meta_arg_of_pericenter": 307.7909,
        "meta_mean_anomaly": 65.4893,
        "meta_ephemeris_type": 0,
        "meta_classification_type": "U",
        "meta_norad_cat_id": 34926,
        "meta_element_set_no": 999,
        "meta_rev_at_epoch": 86393,
        "meta_bstar": 0.0060894257,
        "meta_mean_motion_dot": 0.00026822,
        "meta_mean_motion_ddot": 0,
        "tle_line1": "1 34926U 97051NF  25342.35889604  .00026822  00000+0  60894-2 0  9993",
        "tle_line2": "2 34926  86.1323  10.3036 0076120 307.7909  65.4893 14.54098020863930"
      },
      "geometry": {
        "type": "Point",
        "coordinates": [
          4.766651928829744,
          -53.718776112767024
        ]
      }
    },
    {
      "type": "Feature",
      "properties": {
        "norad_id": 34985,
        "name": "IRIDIUM 33 DEB",
        "group": "iridium-33-debris",
        "lat": -60.69742119618648,
        "lon": -114.98545814493775,
        "alt_km": 744.859683009614,
        "timestamp": "2025-12-08T21:31:05.051963+00:00",
        "meta_object_name": "IRIDIUM 33 DEB",
        "meta_object_id": "1997-051NR",
        "meta_epoch": "2025-12-08T05:40:04.658592",
        "meta_mean_motion": 14.41979756,
        "meta_eccentricity": 0.00202828,
        "meta_inclination": 86.3695,
        "meta_ra_of_asc_node": 58.8006,
        "meta_arg_of_pericenter": 235.2895,
        "meta_mean_anomaly": 179.3648,
        "meta_ephemeris_type": 0,
        "meta_classification_type": "U",
        "meta_norad_cat_id": 34985,
        "meta_element_set_no": 999,
        "meta_rev_at_epoch": 87110,
        "meta_bstar": 0.0010950657,
        "meta_mean_motion_dot": 3.617e-05,
        "meta_mean_motion_ddot": 0,
        "tle_line1": "1 34985U 97051NR  25342.23616503  .00003617  00000+0  10951-2 0  9997",
        "tle_line2": "2 34985  86.3695  58.8006 0020282 235.2895 179.3648 14.41979756871101"
      },
      "geometry": {
        "type": "Point",
        "coordinates": [
          -114.98545814493775,
          -60.69742119618648
        ]
      }
    },
    {
      "type": "Feature",
      "properties": {
        "norad_id": 35051,
        "name": "IRIDIUM 33 DEB",
        "group": "iridium-33-debris",
        "lat": 82.62118860940079,
        "lon": 160.7749563091064,
        "alt_km": 718.6231787313527,
        "timestamp": "2025-12-08T21:31:05.051973+00:00",
        "meta_object_name": "IRIDIUM 33 DEB",
        "meta_object_id": "1997-051NX",
        "meta_epoch": "2025-12-05T08:27:53.565120",
        "meta_mean_motion": 14.47546386,
        "meta_eccentricity": 0.00106363,
        "meta_inclination": 86.3242,
        "meta_ra_of_asc_node": 12.0813,
        "meta_arg_of_pericenter": 111.2483,
        "meta_mean_anomaly": 248.9857,
        "meta_ephemeris_type": 0,
        "meta_classification_type": "U",
        "meta_norad_cat_id": 35051,
        "meta_element_set_no": 999,
        "meta_rev_at_epoch": 86889,
        "meta_bstar": 0.0012192117,
        "meta_mean_motion_dot": 4.506e-05,
        "meta_mean_motion_ddot": 0,
        "tle_line1": "1 35051U 97051NX  25339.35270330  .00004506  00000+0  12192-2 0  9992",
        "tle_line2": "2 35051  86.3242  12.0813 0010636 111.2483 248.9857 14.47546386868892"
      },
      "geometry": {
        "type": "Point",
        "coordinates": [
          160.7749563091064,
          82.62118860940079
        ]
      }
    }
  ]
}